STARLINK-36319          
1 67970C 26038K   26100.00187500  .00013598  00000+0  41107-3 0  1003
2 67970  97.2849 110.6419 0001536  88.6345   4.3211 15.34274391    12
STARLINK-36710          
1 67971C 26038L   26099.99423611 -.00024597  00000+0 -76313-3 0   992
2 67971  97.2850 110.6629 0001890  84.8714  31.2742 15.33468553    11
STARLINK-36894          
1 67972C 26038M   26099.99493056  .00026991  00000+0  83782-3 0   999
2 67972  97.2851 110.6701 0001679  88.0989  46.9107 15.33426617    12
STARLINK-36900          
1 67973C 26038N   26100.03868056  .00036953  00000+0  11163-2 0  1009
2 67973  97.2846 110.6993 0001643  84.5328 263.4962 15.34285271    14
STARLINK-36901          
1 67974C 26038P   26099.98520833  .00033790  00000+0  10489-2 0   992
2 67974  97.2852 110.6668 0001659  88.8409   7.5372 15.33421500    13
STARLINK-36883          
1 67975C 26038Q   26099.98173611  .00027133  00000+0  84218-3 0   997
2 67975  97.2856 110.6950 0001818  88.0992  64.1183 15.33428291    11
STARLINK-36880          
1 67976C 26038R   26100.06645833 -.00027996  00000+0 -86907-3 0  1009
2 67976  97.2849 110.7568 0001803  89.3175 125.2892 15.33452683    19
STARLINK-36904          
1 67977C 26038S   26100.00465278  .00010931  00000+0  33929-3 0  1002
2 67977  97.2855 110.7110 0001794  90.0810 173.5623 15.33435707    10
STARLINK-36364          
1 67978C 26038T   26100.04284722  .00074293  00000+0  23027-2 0  1008
2 67978  97.2855 110.7684 0001857  96.1129  63.2235 15.33449036    11
STARLINK-36359          
1 67979C 26038U   26100.07618056 -.00028732  00000+0 -89184-3 0  1009
2 67979  97.2852 110.7749 0001210  90.9244 192.3089 15.33456657    12
STARLINK-36882          
1 67980C 26038V   26100.00048611  .00034362  00000+0  10666-2 0  1000
2 67980  97.2855 110.7195 0002222  72.2528 198.4005 15.33423782    12
STARLINK-36874          
1 67981C 26038W   26100.01437500  .00001696  00000+0  52594-4 0  1003
2 67981  97.2855 110.7468 0001324  92.1320 285.0885 15.33461460    13
STARLINK-36879          
1 67982C 26038X   26100.04562500 -.00018130  00000+0 -56272-3 0  1005
2 67982  97.2851 110.7814 0001702  89.7295 114.9404 15.33452133    12
STARLINK-36867          
1 67983C 26038Y   26100.02687500 -.00029815  00000+0 -92503-3 0  1001
2 67983  97.2850 110.7764 0001737  99.3575  31.8451 15.33470610    11
STARLINK-36266          
1 67984C 26038Z   26099.98590278  .00031794  00000+0  98698-3 0   994
2 67984  97.2852 110.7316 0001662  89.1116 161.0950 15.33422583    18
STARLINK-36802          
1 67985C 26038AA  26099.99423611  .00045366  00000+0  13721-2 0   995
2 67985  97.2846 111.5046 0001288  85.4077 218.1304 15.34242963    10
STARLINK-36535          
1 67986C 26039A   26100.04562500 -.00011479  00000+0 -40538-3 0  1007
2 67986  43.0005 232.3013 0001456 278.2287  83.9527 15.28410066    14
STARLINK-36744          
1 67987C 26039B   26100.06506944 -.00011259  00000+0 -40794-3 0  1000
2 67987  43.0013 232.0726 0001605 276.8316 240.5915 15.27573866    14
STARLINK-36734          
1 67988C 26039C   26100.07756944 -.00012077  00000+0 -42654-3 0  1005
2 67988  43.0005 232.1382 0001629 280.4472 260.6182 15.28408131    17
STARLINK-36957          
1 67989C 26039D   26099.99909722 -.00002509  00000+0 -90874-4 0   992
2 67989  43.0023 232.3441 0001978 273.1517 283.5032 15.27575106    16
STARLINK-36951          
1 67990C 26039E   26099.99493056 -.00001316  00000+0 -47654-4 0   995
2 67990  43.0020 232.3216 0002291 273.8284 281.1019 15.27576736    11
STARLINK-36941          
1 67991C 26039F   26100.01784722 -.00008441  00000+0 -30577-3 0  1009
2 67991  43.0011 232.1770 0001688 273.9490  61.2892 15.27579735    12
STARLINK-36950          
1 67992C 26039G   26100.02409722 -.00006636  00000+0 -24036-3 0  1002
2 67992  43.0011 232.0806 0001796 269.4668 121.4198 15.27578661    14
STARLINK-36975          
1 67993C 26039H   26100.03312500 -.00008489  00000+0 -30756-3 0  1005
2 67993  43.0007 231.9753 0001253 283.2702 178.5376 15.27572922    15
STARLINK-36993          
1 67994C 26039J   26100.03104167 -.00009119  00000+0 -33075-3 0  1002
2 67994  43.0008 231.9175 0001579 267.9505 203.7135 15.27536440    15
STARLINK-36968          
1 67995C 26039K   26100.06784722 -.00010131  00000+0 -35775-3 0  1002
2 67995  43.0000 231.5850 0001408 275.4228  99.8171 15.28413400    16
STARLINK-36979          
1 67996C 26039L   26099.93173611  .00025770  00000+0  93353-3 0   991
2 67996  43.0008 232.4248 0001347 268.9470  37.1261 15.27560351    16
STARLINK-36994          
1 67997C 26039M   26100.04631944 -.00014964  00000+0 -54209-3 0  1000
2 67997  43.0002 231.4970 0001647 264.3453  72.8493 15.27580528    17
STARLINK-36988          
1 67998C 26039N   26100.03243056 -.00015907  00000+0 -57652-3 0  1006
2 67998  43.0003 231.6259 0002235 263.2695 336.1896 15.27563534    12
STARLINK-36926          
1 67999C 26039P   26100.06090278 -.00009505  00000+0 -34437-3 0  1009
2 67999  43.0001 231.3636 0001420 272.0146 166.6915 15.27572104    12
STARLINK-36931          
1 68000C 26039Q   26100.04354167 -.00011752  00000+0 -42576-3 0  1001
2 68000  43.0003 231.4212 0001323 261.6630  95.6253 15.27575468    15
STARLINK-36903          
1 68001C 26039R   26100.04562500 -.00011626  00000+0 -42103-3 0  1000
2 68001  43.0008 232.2529 0001753 268.2620 113.7892 15.27587777    17
STARLINK-36898          
1 68002C 26039S   26100.02618056 -.00011859  00000+0 -42967-3 0  1003
2 68002  43.0018 232.2545 0001787 278.0626  39.4059 15.27572202    15
STARLINK-36862          
1 68003C 26039T   26099.98868056  .00008622  00000+0  30448-3 0   993
2 68003  43.0008 232.5785 0001521 265.0995 160.2363 15.28402642    17
STARLINK-36888          
1 68004C 26039U   26100.07479167 -.00012003  00000+0 -42388-3 0  1007
2 68004  43.0008 232.1048 0001470 263.1354 271.6167 15.28411048    16
STARLINK-36910          
1 68005C 26039V   26100.07618056 -.00016875  00000+0 -61142-3 0  1000
2 68005  43.0019 231.9178 0001826 278.5443 335.4307 15.27574363    18
STARLINK-36889          
1 68006C 26039W   26100.03590278 -.00009204  00000+0 -33346-3 0  1005
2 68006  43.0015 232.0146 0001574 280.4643 168.3512 15.27572011    15
STARLINK-36592          
1 68007C 26039X   26099.97895833  .00006780  00000+0  24567-3 0   997
2 68007  43.0009 232.2784 0001432 282.8520 233.6794 15.27561163    16
STARLINK-36911          
1 68008C 26039Y   26099.93937500  .00021659  00000+0  78459-3 0   993
2 68008  43.0006 232.4503 0001397 263.1824  56.6428 15.27563026    11
STARLINK-36956          
1 68009C 26039Z   26100.06229167 -.00017444  00000+0 -63185-3 0  1006
2 68009  43.0007 231.7052 0001434 259.8830  37.8982 15.27585009    16
STARLINK-36953          
1 68010C 26039AA  26100.07062500 -.00009481  00000+0 -34341-3 0  1009
2 68010  43.0010 231.5084 0001525 262.2470 138.0321 15.27583512    12
STARLINK-36991          
1 68011C 26039AB  26100.00326389 -.00003407  00000+0 -12032-3 0  1006
2 68011  43.0001 231.9458 0001396 280.6289  97.5804 15.28408933    19
STARLINK-36936          
1 68012C 26039AC  26100.03520833 -.00017251  00000+0 -62509-3 0  1006
2 68012  43.0002 231.5675 0001916 270.5031 358.4487 15.27572643    14
STARLINK-36967          
1 68013C 26039AD  26100.07409722 -.00010384  00000+0 -37658-3 0  1001
2 68013  43.0004 231.6019 0001491 258.7953 125.1737 15.27543207    10
STARLINK-36985          
1 68014C 26039AE  26100.06090278 -.00012048  00000+0 -43638-3 0  1007
2 68014  43.0007 231.4602 0001499 268.2687 120.9386 15.27582869    18
STARLINK-36335          
1 68015C 26040A   26099.99006944 -.00129170  00000+0 -40098-2 0   994
2 68015  97.2845  49.5731 0001958  98.4255 334.4891 15.33503080    13
STARLINK-36923          
1 68016C 26040B   26100.00673611 -.00043066  00000+0 -13024-2 0  1002
2 68016  97.2847  49.5773 0001601 105.3036  31.0816 15.34288913    15
STARLINK-36568          
1 68017C 26040C   26100.06993056 -.00013101  00000+0 -40669-3 0  1000
2 68017  97.2848  49.6707 0001451 102.1165  96.3876 15.33445913    10
STARLINK-36930          
1 68018C 26040D   26100.07895833 -.00006941  00000+0 -21552-3 0  1000
2 68018  97.2848  49.6668 0001871 100.5151 117.8123 15.33434664    15
STARLINK-36921          
1 68019C 26040E   26100.04006944 -.00020740  00000+0 -64395-3 0  1000
2 68019  97.2848  49.6543 0001512 102.4457 321.3279 15.33443342    17
STARLINK-36928          
1 68020C 26040F   26100.02965278 -.00027223  00000+0 -84460-3 0  1002
2 68020  97.2848  49.6377 0001911  67.5317 283.7408 15.33470061    16
STARLINK-36858          
1 68021C 26040G   26100.05534722 -.00021093  00000+0 -65468-3 0  1008
2 68021  97.2848  49.6894 0001804 117.3863  75.5267 15.33453901    16
STARLINK-36916          
1 68022C 26040H   26099.99145833 -.02156300  00000+0 -43486-1 0   993
2 68022  97.2850  49.5653 0001766  83.0395 336.6685 15.47678509    11
STARLINK-36871          
1 68023C 26040J   26100.02270833 -.00043601  00000+0 -13541-2 0  1000
2 68023  97.2850  49.6495 0001558 103.3552 254.6506 15.33446309    14
STARLINK-36891          
1 68024C 26040K   26100.02270833 -.00045447  00000+0 -13746-2 0  1008
2 68024  97.2842  49.6467 0001611 106.2272 244.1297 15.34286567    16
STARLINK-36378          
1 68025C 26040L   26100.04909722 -.00010748  00000+0 -32530-3 0  1006
2 68025  97.2848  49.6677 0001159 127.4726 356.0255 15.34248228    11
STARLINK-36884          
1 68026C 26040M   26100.03243056 -.02150100  00000+0 -62317-1 0  1000
2 68026  97.2844  49.6766 0001706  86.6347   5.5362 15.36702865    19
STARLINK-36940          
1 68027C 26040N   26100.02479167 -.01689800  00000+0 -51849-1 0  1005
2 68027  97.2841  49.7555 0001623  95.6687 153.0664 15.34667171    11
STARLINK-36253          
1 68028C 26040P   26100.05604167 -.00013957  00000+0 -43342-3 0  1003
2 68028  97.2856  48.7238 0001768  98.3736 346.6865 15.33433773    11
